0 METEOR 2-17 DEB
1 31397U 88005S   13281.08065751  .00000871  00000-0  71844-3 0  4045
2 31397 082.5345 051.8439 0021644 168.7356 191.3462 13.87937979350260
0 METEOR 2-17 DEB
1 31397U 88005S   13283.09919854  .00001165  00000-0  96608-3 0  4053
2 31397 082.5340 050.2433 0018455 149.9798 210.4771 13.87953873350547
0 METEOR 2-17 DEB
1 31397U 88005S   13287.06405393  .00001351  00000-0  11224-2 0  4060
2 31397 082.5337 047.0686 0017701 139.7521 220.5561 13.87966704351098
0 METEOR 2-17 DEB
1 31397U 88005S   13290.01966945  .00001352  00000-0  11224-2 0  4076
2 31397 082.5337 044.7022 0017700 131.4113 228.8574 13.87974595351509
0 METEOR 2-17 DEB
1 31397U 88005S   13292.03813686  .00001433  00000-0  11909-2 0  4084
2 31397 082.5340 043.0841 0016444 125.9109 234.3998 13.87982053351781
0 METEOR 2-17 DEB
1 31397U 88005S   13294.05658343  .00001451  00000-0  12056-2 0  4090
2 31397 082.5337 041.4671 0016361 120.3301 239.9540 13.87988273352067
